0 CBERS 1 DEB
1 32072U 99057QL  13276.70105569  .00003685  00000-0  10656-2 0  2980
2 32072 098.2604 239.0448 0011070 006.3302 353.8512 14.44559239328745
0 CBERS 1 DEB
1 32072U 99057QL  13277.11668162  .00003220  00000-0  94222-3 0  2986
2 32072 098.2493 239.4064 0014082 334.4823 025.7307 14.44553784328801
0 CBERS 1 DEB
1 32072U 99057QL  13281.68808921  .00003770  00000-0  11007-2 0  2992
2 32072 098.2612 243.8907 0008976 003.4479 356.6947 14.44599578329464
0 CBERS 1 DEB
1 32072U 99057QL  13283.14261467  .00003813  00000-0  11129-2 0  3009
2 32072 098.2604 245.3037 0009813 352.6273 007.4962 14.44612155329676
0 CBERS 1 DEB
1 32072U 99057QL  13283.69671172  .00007646  00000-0  22083-2 0  3017
2 32072 098.2650 245.8418 0011200 349.1406 011.0031 14.44626144329757
0 CBERS 1 DEB
1 32072U 99057QL  13284.11228977  .00003869  00000-0  11287-2 0  3013
2 32072 098.2586 246.2401 0010084 347.1867 012.9477 14.44621620329815
0 CBERS 1 DEB
1 32072U 99057QL  13286.12088776  .00003932  00000-0  11463-2 0  3025
2 32072 098.2606 248.2030 0011185 339.1089 021.0222 14.44639534330104
0 CBERS 1 DEB
1 32072U 99057QL  13286.67497005  .00003948  00000-0  11512-2 0  3037
2 32072 098.2661 248.7569 0008111 003.5751 356.5688 14.44644419330188
0 CBERS 1 DEB
1 32072U 99057QL  13288.12945218  .00003978  00000-0  11596-2 0  3049
2 32072 098.2652 250.1664 0008066 001.1508 358.9951 14.44657177330391
0 CBERS 1 DEB
1 32072U 99057QL  13288.68353412  .00004017  00000-0  11707-2 0  3059
2 32072 098.2671 250.7135 0007691 359.2088 000.9608 14.44663177330473
0 CBERS 1 DEB
1 32072U 99057QL  13290.69199385  .00008483  00000-0  24459-2 0  3071
2 32072 098.2569 252.6483 0009529 325.9937 034.1128 14.44714925330767
